[
  {
    "COMMENT": "GENERATED VIA SPACETRACK.ORG API",
    "ORIGINATOR": "18 SPCS",
    "NORAD_CAT_ID": "54754",
    "OBJECT_NAME": "SWOT",
    "OBJECT_TYPE": "PAYLOAD",
    "CLASSIFICATION_TYPE": "U",
    "INTLDES": "22173A",
    "EPOCH": "2023-04-13 08:02:28",
    "EPOCH_MICROSECONDS": "258656",
    "MEAN_MOTION": "14.09850244",
    "ECCENTRICITY": "0.0001029",
    "INCLINATION": "77.6059",
    "RA_OF_ASC_NODE": "164.3272",
    "ARG_OF_PERICENTER": "213.5018",
    "MEAN_ANOMALY": "146.6074",
    "EPHEMERIS_TYPE": "0",
    "ELEMENT_SET_NO": "999",
    "REV_AT_EPOCH": "1660",
    "BSTAR": "0.00013839",
    "MEAN_MOTION_DOT": "0.00000241",
    "MEAN_MOTION_DDOT": "0",
    "FILE": "3886564",
    "TLE_LINE0": "0 SWOT",
    "TLE_LINE1": "1 54754U 22173A   23103.33504929  .00000241  00000-0  13839-3 0  9998",
    "TLE_LINE2": "2 54754  77.6059 164.3272 0001029 213.5018 146.6074 14.09850244 16606",
    "OBJECT_ID": "2022-173A",
    "OBJECT_NUMBER": "54754",
    "SEMIMAJOR_AXIS": "7238.021",
    "PERIOD": "102.139",
    "APOGEE": "860.631",
    "PERIGEE": "859.141",
    "DECAYED": "0"
  },
  {
    "COMMENT": "GENERATED VIA SPACETRACK.ORG API",
    "ORIGINATOR": "18 SPCS",
    "NORAD_CAT_ID": "54754",
    "OBJECT_NAME": "SWOT",
    "OBJECT_TYPE": "PAYLOAD",
    "CLASSIFICATION_TYPE": "U",
    "INTLDES": "22173A",
    "EPOCH": "2023-04-13 18:15:35",
    "EPOCH_MICROSECONDS": "973792",
    "MEAN_MOTION": "14.09850451",
    "ECCENTRICITY": "0.0001039",
    "INCLINATION": "77.6058",
    "RA_OF_ASC_NODE": "163.7429",
    "ARG_OF_PERICENTER": "213.5852",
    "MEAN_ANOMALY": "146.5239",
    "EPHEMERIS_TYPE": "0",
    "ELEMENT_SET_NO": "999",
    "REV_AT_EPOCH": "1666",
    "BSTAR": "0.00013764",
    "MEAN_MOTION_DOT": "0.00000239",
    "MEAN_MOTION_DDOT": "0",
    "FILE": "3886903",
    "TLE_LINE0": "0 SWOT",
    "TLE_LINE1": "1 54754U 22173A   23103.76083303  .00000239  00000-0  13764-3 0  9997",
    "TLE_LINE2": "2 54754  77.6058 163.7429 0001039 213.5852 146.5239 14.09850451 16667",
    "OBJECT_ID": "2022-173A",
    "OBJECT_NUMBER": "54754",
    "SEMIMAJOR_AXIS": "7238.021",
    "PERIOD": "102.138",
    "APOGEE": "860.638",
    "PERIGEE": "859.133",
    "DECAYED": "0"
  },
  {
    "COMMENT": "GENERATED VIA SPACETRACK.ORG API",
    "ORIGINATOR": "18 SPCS",
    "NORAD_CAT_ID": "54754",
    "OBJECT_NAME": "SWOT",
    "OBJECT_TYPE": "PAYLOAD",
    "CLASSIFICATION_TYPE": "U",
    "INTLDES": "22173A",
    "EPOCH": "2023-04-14 11:17:28",
    "EPOCH_MICROSECONDS": "821408",
    "MEAN_MOTION": "14.0985083",
    "ECCENTRICITY": "0.0001054",
    "INCLINATION": "77.6057",
    "RA_OF_ASC_NODE": "162.7692",
    "ARG_OF_PERICENTER": "213.0527",
    "MEAN_ANOMALY": "147.0564",
    "EPHEMERIS_TYPE": "0",
    "ELEMENT_SET_NO": "999",
    "REV_AT_EPOCH": "1676",
    "BSTAR": "0.00014217",
    "MEAN_MOTION_DOT": "0.00000247",
    "MEAN_MOTION_DDOT": "0",
    "FILE": "3887333",
    "TLE_LINE0": "0 SWOT",
    "TLE_LINE1": "1 54754U 22173A   23104.47047247  .00000247  00000-0  14217-3 0  9996",
    "TLE_LINE2": "2 54754  77.6057 162.7692 0001054 213.0527 147.0564 14.09850830 16767",
    "OBJECT_ID": "2022-173A",
    "OBJECT_NUMBER": "54754",
    "SEMIMAJOR_AXIS": "7238.019",
    "PERIOD": "102.138",
    "APOGEE": "860.647",
    "PERIGEE": "859.121",
    "DECAYED": "0"
  },
  {
    "COMMENT": "GENERATED VIA SPACETRACK.ORG API",
    "ORIGINATOR": "18 SPCS",
    "NORAD_CAT_ID": "54754",
    "OBJECT_NAME": "SWOT",
    "OBJECT_TYPE": "PAYLOAD",
    "CLASSIFICATION_TYPE": "U",
    "INTLDES": "22173A",
    "EPOCH": "2023-04-14 21:30:36",
    "EPOCH_MICROSECONDS": "519264",
    "MEAN_MOTION": "14.09851099",
    "ECCENTRICITY": "0.000105",
    "INCLINATION": "77.6056",
    "RA_OF_ASC_NODE": "162.185",
    "ARG_OF_PERICENTER": "213.1328",
    "MEAN_ANOMALY": "146.9763",
    "EPHEMERIS_TYPE": "0",
    "ELEMENT_SET_NO": "999",
    "REV_AT_EPOCH": "1682",
    "BSTAR": "0.00014636",
    "MEAN_MOTION_DOT": "0.00000255",
    "MEAN_MOTION_DDOT": "0",
    "FILE": "3887559",
    "TLE_LINE0": "0 SWOT",
    "TLE_LINE1": "1 54754U 22173A   23104.89625601  .00000255  00000-0  14636-3 0  9992",
    "TLE_LINE2": "2 54754  77.6056 162.1850 0001050 213.1328 146.9763 14.09851099 16826",
    "OBJECT_ID": "2022-173A",
    "OBJECT_NUMBER": "54754",
    "SEMIMAJOR_AXIS": "7238.018",
    "PERIOD": "102.138",
    "APOGEE": "860.643",
    "PERIGEE": "859.123",
    "DECAYED": "0"
  },
  {
    "COMMENT": "GENERATED VIA SPACETRACK.ORG API",
    "ORIGINATOR": "18 SPCS",
    "NORAD_CAT_ID": "54754",
    "OBJECT_NAME": "SWOT",
    "OBJECT_TYPE": "PAYLOAD",
    "CLASSIFICATION_TYPE": "U",
    "INTLDES": "22173A",
    "EPOCH": "2023-04-15 12:50:18",
    "EPOCH_MICROSECONDS": "58272",
    "MEAN_MOTION": "14.09851457",
    "ECCENTRICITY": "0.0001056",
    "INCLINATION": "77.6055",
    "RA_OF_ASC_NODE": "161.3087",
    "ARG_OF_PERICENTER": "213.057",
    "MEAN_ANOMALY": "147.0521",
    "EPHEMERIS_TYPE": "0",
    "ELEMENT_SET_NO": "999",
    "REV_AT_EPOCH": "1691",
    "BSTAR": "0.0001507",
    "MEAN_MOTION_DOT": "0.00000262",
    "MEAN_MOTION_DDOT": "0",
    "FILE": "3887974",
    "TLE_LINE0": "0 SWOT",
    "TLE_LINE1": "1 54754U 22173A   23105.53493123  .00000262  00000-0  15070-3 0  9997",
    "TLE_LINE2": "2 54754  77.6055 161.3087 0001056 213.0570 147.0521 14.09851457 16914",
    "OBJECT_ID": "2022-173A",
    "OBJECT_NUMBER": "54754",
    "SEMIMAJOR_AXIS": "7238.017",
    "PERIOD": "102.138",
    "APOGEE": "860.646",
    "PERIGEE": "859.118",
    "DECAYED": "0"
  },
  {
    "COMMENT": "GENERATED VIA SPACETRACK.ORG API",
    "ORIGINATOR": "18 SPCS",
    "NORAD_CAT_ID": "54754",
    "OBJECT_NAME": "SWOT",
    "OBJECT_TYPE": "PAYLOAD",
    "CLASSIFICATION_TYPE": "U",
    "INTLDES": "22173A",
    "EPOCH": "2023-04-15 21:21:14",
    "EPOCH_MICROSECONDS": "463936",
    "MEAN_MOTION": "14.09851631",
    "ECCENTRICITY": "0.0001056",
    "INCLINATION": "77.6055",
    "RA_OF_ASC_NODE": "160.8218",
    "ARG_OF_PERICENTER": "213.3696",
    "MEAN_ANOMALY": "146.7395",
    "EPHEMERIS_TYPE": "0",
    "ELEMENT_SET_NO": "999",
    "REV_AT_EPOCH": "1696",
    "BSTAR": "0.00015035",
    "MEAN_MOTION_DOT": "0.00000262",
    "MEAN_MOTION_DDOT": "0",
    "FILE": "3888171",
    "TLE_LINE0": "0 SWOT",
    "TLE_LINE1": "1 54754U 22173A   23105.88975074  .00000262  00000-0  15035-3 0  9996",
    "TLE_LINE2": "2 54754  77.6055 160.8218 0001056 213.3696 146.7395 14.09851631 16960",
    "OBJECT_ID": "2022-173A",
    "OBJECT_NUMBER": "54754",
    "SEMIMAJOR_AXIS": "7238.016",
    "PERIOD": "102.138",
    "APOGEE": "860.646",
    "PERIGEE": "859.117",
    "DECAYED": "0"
  },
  {
    "COMMENT": "GENERATED VIA SPACETRACK.ORG API",
    "ORIGINATOR": "18 SPCS",
    "NORAD_CAT_ID": "54754",
    "OBJECT_NAME": "SWOT",
    "OBJECT_TYPE": "PAYLOAD",
    "CLASSIFICATION_TYPE": "U",
    "INTLDES": "22173A",
    "EPOCH": "2023-04-16 05:52:10",
    "EPOCH_MICROSECONDS": "864416",
    "MEAN_MOTION": "14.09851886",
    "ECCENTRICITY": "0.0001045",
    "INCLINATION": "77.6055",
    "RA_OF_ASC_NODE": "160.3351",
    "ARG_OF_PERICENTER": "213.3762",
    "MEAN_ANOMALY": "146.7329",
    "EPHEMERIS_TYPE": "0",
    "ELEMENT_SET_NO": "999",
    "REV_AT_EPOCH": "1701",
    "BSTAR": "0.00015686",
    "MEAN_MOTION_DOT": "0.00000273",
    "MEAN_MOTION_DDOT": "0",
    "FILE": "3888356",
    "TLE_LINE0": "0 SWOT",
    "TLE_LINE1": "1 54754U 22173A   23106.24457019  .00000273  00000-0  15686-3 0  9995",
    "TLE_LINE2": "2 54754  77.6055 160.3351 0001045 213.3762 146.7329 14.09851886 17011",
    "OBJECT_ID": "2022-173A",
    "OBJECT_NUMBER": "54754",
    "SEMIMAJOR_AXIS": "7238.016",
    "PERIOD": "102.138",
    "APOGEE": "860.637",
    "PERIGEE": "859.124",
    "DECAYED": "0"
  },
  {
    "COMMENT": "GENERATED VIA SPACETRACK.ORG API",
    "ORIGINATOR": "18 SPCS",
    "NORAD_CAT_ID": "54754",
    "OBJECT_NAME": "SWOT",
    "OBJECT_TYPE": "PAYLOAD",
    "CLASSIFICATION_TYPE": "U",
    "INTLDES": "22173A",
    "EPOCH": "2023-04-16 12:40:55",
    "EPOCH_MICROSECONDS": "983936",
    "MEAN_MOTION": "14.0985204",
    "ECCENTRICITY": "0.0001049",
    "INCLINATION": "77.6054",
    "RA_OF_ASC_NODE": "159.9456",
    "ARG_OF_PERICENTER": "212.8998",
    "MEAN_ANOMALY": "147.2093",
    "EPHEMERIS_TYPE": "0",
    "ELEMENT_SET_NO": "999",
    "REV_AT_EPOCH": "1705",
    "BSTAR": "0.00016043",
    "MEAN_MOTION_DOT": "0.00000279",
    "MEAN_MOTION_DDOT": "0",
    "FILE": "3888626",
    "TLE_LINE0": "0 SWOT",
    "TLE_LINE1": "1 54754U 22173A   23106.52842574  .00000279  00000-0  16043-3 0  9994",
    "TLE_LINE2": "2 54754  77.6054 159.9456 0001049 212.8998 147.2093 14.09852040 17050",
    "OBJECT_ID": "2022-173A",
    "OBJECT_NUMBER": "54754",
    "SEMIMAJOR_AXIS": "7238.015",
    "PERIOD": "102.138",
    "APOGEE": "860.639",
    "PERIGEE": "859.121",
    "DECAYED": "0"
  },
  {
    "COMMENT": "GENERATED VIA SPACETRACK.ORG API",
    "ORIGINATOR": "18 SPCS",
    "NORAD_CAT_ID": "54754",
    "OBJECT_NAME": "SWOT",
    "OBJECT_TYPE": "PAYLOAD",
    "CLASSIFICATION_TYPE": "U",
    "INTLDES": "22173A",
    "EPOCH": "2023-04-16 21:11:52",
    "EPOCH_MICROSECONDS": "375776",
    "MEAN_MOTION": "14.0985221",
    "ECCENTRICITY": "0.0001052",
    "INCLINATION": "77.6052",
    "RA_OF_ASC_NODE": "159.4586",
    "ARG_OF_PERICENTER": "212.625",
    "MEAN_ANOMALY": "147.4843",
    "EPHEMERIS_TYPE": "0",
    "ELEMENT_SET_NO": "999",
    "REV_AT_EPOCH": "1710",
    "BSTAR": "0.00015717",
    "MEAN_MOTION_DOT": "0.00000274",
    "MEAN_MOTION_DDOT": "0",
    "FILE": "3888799",
    "TLE_LINE0": "0 SWOT",
    "TLE_LINE1": "1 54754U 22173A   23106.88324509  .00000274  00000-0  15717-3 0  9998",
    "TLE_LINE2": "2 54754  77.6052 159.4586 0001052 212.6250 147.4843 14.09852210 17100",
    "OBJECT_ID": "2022-173A",
    "OBJECT_NUMBER": "54754",
    "SEMIMAJOR_AXIS": "7238.014",
    "PERIOD": "102.138",
    "APOGEE": "860.641",
    "PERIGEE": "859.118",
    "DECAYED": "0"
  }
]